{
    "links": {
        "self": "http://www.neowsapp.com/rest/v1/neo/3989175?api_key=iIulBulltgU6a56xZRHN4H3l9WmuAYTsLGpBGhQ2"
    },
    "id": "3989175",
    "neo_reference_id": "3989175",
    "name": "(2020 BW7)",
    "designation": "2020 BW7",
    "nasa_jpl_url": "http://ssd.jpl.nasa.gov/sbdb.cgi?sstr=3989175",
    "absolute_magnitude_h": 26.757,
    "estimated_diameter": {
        "kilometers": {
            "estimated_diameter_min": 0.011834638,
            "estimated_diameter_max": 0.026463055
        },
        "meters": {
            "estimated_diameter_min": 11.8346379568,
            "estimated_diameter_max": 26.4630549605
        },
        "miles": {
            "estimated_diameter_min": 0.0073537008,
            "estimated_diameter_max": 0.0164433749
        },
        "feet": {
            "estimated_diameter_min": 38.8275535942,
            "estimated_diameter_max": 86.8210492367
        }
    },
    "is_potentially_hazardous_asteroid": false,
    "close_approach_data": [
        {
            "close_approach_date": "2009-01-24",
            "close_approach_date_full": "2009-Jan-24 02:55",
            "epoch_date_close_approach": 1232765700000,
            "relative_velocity": {
                "kilometers_per_second": "8.5098368409",
                "kilometers_per_hour": "30635.4126271696",
                "miles_per_hour": "19035.6540293655"
            },
            "miss_distance": {
                "astronomical": "0.1786657271",
                "lunar": "69.5009678419",
                "kilometers": "26728012.216161277",
                "miles": "16608016.6671565426"
            },
            "orbiting_body": "Earth"
        },
        {
            "close_approach_date": "2020-02-12",
            "close_approach_date_full": "2020-Feb-12 07:08",
            "epoch_date_close_approach": 1581491280000,
            "relative_velocity": {
                "kilometers_per_second": "4.3209928054",
                "kilometers_per_hour": "15555.5740993673",
                "miles_per_hour": "9665.6288063541"
            },
            "miss_distance": {
                "astronomical": "0.0538178886",
                "lunar": "20.9351586654",
                "kilometers": "8051041.502457282",
                "miles": "5002685.2120312116"
            },
            "orbiting_body": "Earth"
        },
        {
            "close_approach_date": "2155-12-22",
            "close_approach_date_full": "2155-Dec-22 06:10",
            "epoch_date_close_approach": 5868742200000,
            "relative_velocity": {
                "kilometers_per_second": "2.8406203092",
                "kilometers_per_hour": "10226.2331131603",
                "miles_per_hour": "6354.1835696745"
            },
            "miss_distance": {
                "astronomical": "0.370481991",
                "lunar": "144.117494499",
                "kilometers": "55423316.72695917",
                "miles": "34438452.081889746"
            },
            "orbiting_body": "Earth"
        },
        {
            "close_approach_date": "2156-04-04",
            "close_approach_date_full": "2156-Apr-04 19:25",
            "epoch_date_close_approach": 5877775500000,
            "relative_velocity": {
                "kilometers_per_second": "12.6201268966",
                "kilometers_per_hour": "45432.4568275807",
                "miles_per_hour": "28229.9618548931"
            },
            "miss_distance": {
                "astronomical": "0.3247872941",
                "lunar": "126.3422574049",
                "kilometers": "48587487.400423567",
                "miles": "30190864.7016245446"
            },
            "orbiting_body": "Earth"
        }
    ],
    "orbital_data": {
        "orbit_id": "5",
        "orbit_determination_date": "2020-02-20 04:53:04",
        "first_observation_date": "2020-01-21",
        "last_observation_date": "2020-02-19",
        "data_arc_in_days": 29,
        "observations_used": 37,
        "orbit_uncertainty": "7",
        "minimum_orbit_intersection": ".0516153",
        "jupiter_tisserand_invariant": "4.489",
        "epoch_osculation": "2459000.5",
        "eccentricity": ".3100672430020268",
        "semi_major_axis": "1.498966118054199",
        "inclination": "4.038380911563578",
        "ascending_node_longitude": "128.9631705503163",
        "orbital_period": "670.3261337806822",
        "perihelion_distance": "1.034185826475683",
        "perihelion_argument": "21.62254962253567",
        "aphelion_distance": "1.963746409632715",
        "perihelion_time": "2458898.345281555482",
        "mean_anomaly": "54.86239725222892",
        "mean_motion": ".5370520137258814",
        "equinox": "J2000",
        "orbit_class": {
            "orbit_class_type": "AMO",
            "orbit_class_description": "Near-Earth asteroid orbits similar to that of 1221 Amor",
            "orbit_class_range": "1.017 AU < q (perihelion) < 1.3 AU"
        }
    },
    "is_sentry_object": false
}